{
  "norad_id": 62762,
  "name": "STARLINK-33577",
  "history": [
    {
      "epoch": "2026-03-28T16:26:58.982496Z",
      "apogee_km": 475.9563905978457,
      "perigee_km": 474.5236236007413,
      "latitude_deg": -5.508631275577572e-06,
      "longitude_deg": 161.07693376618016,
      "height_km": 475.9265315453625,
      "semi_major_axis_km": 6853.377007099293,
      "eccentricity": 0.00010453,
      "inclination_deg": 53.158,
      "raan_deg": 233.925,
      "arg_perigee_deg": 72.8114,
      "mean_anomaly_deg": 287.3001,
      "mean_motion_rev_day": 15.30191648
    },
    {
      "epoch": "2026-03-29T22:13:59.449728Z",
      "apogee_km": 475.9657915577118,
      "perigee_km": 474.3867881757269,
      "latitude_deg": -1.6028686673781987e-05,
      "longitude_deg": 67.33571610896371,
      "height_km": 475.8708399437139,
      "semi_major_axis_km": 6853.313289866719,
      "eccentricity": 0.0001152,
      "inclination_deg": 53.1586,
      "raan_deg": 228.1589,
      "arg_perigee_deg": 75.0555,
      "mean_anomaly_deg": 285.0573,
      "mean_motion_rev_day": 15.30212988
    },
    {
      "epoch": "2026-03-29T22:13:59.450592Z",
      "apogee_km": 475.9654488920478,
      "perigee_km": 474.3871308413918,
      "latitude_deg": -1.1572779163961528e-05,
      "longitude_deg": 67.33571581911382,
      "height_km": 475.8709283098869,
      "semi_major_axis_km": 6853.313289866719,
      "eccentricity": 0.00011515,
      "inclination_deg": 53.1586,
      "raan_deg": 228.1589,
      "arg_perigee_deg": 75.0555,
      "mean_anomaly_deg": 285.0573,
      "mean_motion_rev_day": 15.30212988
    },
    {
      "epoch": "2026-03-30T13:54:31.723776Z",
      "apogee_km": 475.9133892290656,
      "perigee_km": 474.5296961392987,
      "latitude_deg": -2.171797793802196e-05,
      "longitude_deg": -171.47643794001183,
      "height_km": 475.9613820505474,
      "semi_major_axis_km": 6853.358542684182,
      "eccentricity": 0.00010095,
      "inclination_deg": 53.1592,
      "raan_deg": 225.125,
      "arg_perigee_deg": 76.7524,
      "mean_anomaly_deg": 283.3589,
      "mean_motion_rev_day": 15.30197832
    },
    {
      "epoch": "2026-03-31T18:07:29.529696Z",
      "apogee_km": 475.75662464833385,
      "perigee_km": 474.67105387539414,
      "latitude_deg": 3.7238595381283988e-06,
      "longitude_deg": 118.66303226842724,
      "height_km": 475.58736699990305,
      "semi_major_axis_km": 6853.350839261863,
      "eccentricity": 7.92e-05,
      "inclination_deg": 53.1611,
      "raan_deg": 219.6641,
      "arg_perigee_deg": 14.2563,
      "mean_anomaly_deg": 345.846,
      "mean_motion_rev_day": 15.30200412
    },
    {
      "epoch": "2026-04-01T14:30:11.087136Z",
      "apogee_km": 476.24753118994704,
      "perigee_km": 474.0777765195371,
      "latitude_deg": -3.642351890801305e-06,
      "longitude_deg": 168.20926850624357,
      "height_km": 476.02601193871124,
      "semi_major_axis_km": 6853.299653854741,
      "eccentricity": 0.0001583,
      "inclination_deg": 53.1615,
      "raan_deg": 215.7204,
      "arg_perigee_deg": 88.1802,
      "mean_anomaly_deg": 271.938,
      "mean_motion_rev_day": 15.30217555
    },
    {
      "epoch": "2026-04-02T17:09:04.902912Z",
      "apogee_km": 475.9206213095931,
      "perigee_km": 474.406041936305,
      "latitude_deg": -1.5036187042761514e-05,
      "longitude_deg": 122.23302254427084,
      "height_km": 476.02263825513097,
      "semi_major_axis_km": 6853.300331622949,
      "eccentricity": 0.0001105,
      "inclination_deg": 53.1611,
      "raan_deg": 210.5628,
      "arg_perigee_deg": 87.0387,
      "mean_anomaly_deg": 273.074,
      "mean_motion_rev_day": 15.30217328
    },
    {
      "epoch": "2026-04-02T17:09:04.903776Z",
      "apogee_km": 475.92055277658983,
      "perigee_km": 474.40611046930826,
      "latitude_deg": -1.4114727454021331e-05,
      "longitude_deg": 122.23301962091475,
      "height_km": 476.0226417955515,
      "semi_major_axis_km": 6853.300331622949,
      "eccentricity": 0.00011049,
      "inclination_deg": 53.1611,
      "raan_deg": 210.5628,
      "arg_perigee_deg": 87.0387,
      "mean_anomaly_deg": 273.074,
      "mean_motion_rev_day": 15.30217328
    },
    {
      "epoch": "2026-04-03T13:31:47.343360Z",
      "apogee_km": 476.4723869252093,
      "perigee_km": 474.2847447565928,
      "latitude_deg": -4.265434772611296e-05,
      "longitude_deg": 171.776253489877,
      "height_km": 475.5456259509005,
      "semi_major_axis_km": 6853.515565840901,
      "eccentricity": 0.0001596,
      "inclination_deg": 53.1619,
      "raan_deg": 206.6198,
      "arg_perigee_deg": 48.0407,
      "mean_anomaly_deg": 312.0729,
      "mean_motion_rev_day": 15.30145244
    },
    {
      "epoch": "2026-04-04T14:36:38.554848Z",
      "apogee_km": 475.8898688104082,
      "perigee_km": 474.39585380064455,
      "latitude_deg": -3.299574180123824e-05,
      "longitude_deg": 149.67924323595665,
      "height_km": 475.9017487977216,
      "semi_major_axis_km": 6853.2798613055265,
      "eccentricity": 0.000109,
      "inclination_deg": 53.1607,
      "raan_deg": 201.7662,
      "arg_perigee_deg": 79.2332,
      "mean_anomaly_deg": 280.8791,
      "mean_motion_rev_day": 15.30224184
    },
    {
      "epoch": "2026-04-05T12:33:21.945888Z",
      "apogee_km": 476.0058022117719,
      "perigee_km": 474.5282083082375,
      "latitude_deg": -6.52434581914493e-05,
      "longitude_deg": 175.35005690595187,
      "height_km": 476.7707273289099,
      "semi_major_axis_km": 6853.404005260004,
      "eccentricity": 0.0001078,
      "inclination_deg": 53.1599,
      "raan_deg": 197.5191,
      "arg_perigee_deg": 144.9482,
      "mean_anomaly_deg": 215.1589,
      "mean_motion_rev_day": 15.30182606
    },
    {
      "epoch": "2026-04-05T15:41:28.804704Z",
      "apogee_km": 476.16811431124006,
      "perigee_km": 474.3492231007658,
      "latitude_deg": -1.6058399206735032e-05,
      "longitude_deg": 127.58415524513698,
      "height_km": 475.6111826730855,
      "semi_major_axis_km": 6853.395668706003,
      "eccentricity": 0.0001327,
      "inclination_deg": 53.1609,
      "raan_deg": 196.9105,
      "arg_perigee_deg": 53.108,
      "mean_anomaly_deg": 307.0042,
      "mean_motion_rev_day": 15.30185398
    },
    {
      "epoch": "2026-04-06T05:47:58.513344Z",
      "apogee_km": 476.36952529431346,
      "perigee_km": 474.1250419414291,
      "latitude_deg": 3.446504986174396e-05,
      "longitude_deg": -87.34609967263825,
      "height_km": 475.991154988488,
      "semi_major_axis_km": 6853.384283617871,
      "eccentricity": 0.00016375,
      "inclination_deg": 53.1621,
      "raan_deg": 194.1834,
      "arg_perigee_deg": 82.1162,
      "mean_anomaly_deg": 278.0025,
      "mean_motion_rev_day": 15.30189211
    },
    {
      "epoch": "2026-04-07T13:09:02.272608Z",
      "apogee_km": 475.9234894823185,
      "perigee_km": 474.5907784590272,
      "latitude_deg": -1.9158889764160972e-05,
      "longitude_deg": 155.03145165186368,
      "height_km": 475.89591707992855,
      "semi_major_axis_km": 6853.394133970673,
      "eccentricity": 9.723e-05,
      "inclination_deg": 53.1582,
      "raan_deg": 188.1142,
      "arg_perigee_deg": 67.0711,
      "mean_anomaly_deg": 293.0392,
      "mean_motion_rev_day": 15.30185912
    }
  ]
}